{
    "satellites": [
        {
            "name": "starlink336",
            "title": "Starlink-336 (G15-12)",
            "tle": [
                "1 67100C 25298AB  25355.10534722 -.01029900  00000+0 -33691-2 0  3556",
                "2 67100  69.9973 226.3040 0004196 264.7781 165.0403 15.91390550    19"
            ],
            "stdMag": 5,
            "noradId": "67100",
            "tleUrl": "http://celestrak.org/NORAD/elements/supplemental/sup-gp.php?FILE=starlink&FORMAT=tle",
            "launchDate": "2025-12-14T05:49:00.000Z",
            "active": true,
            "batch": [
                {
                    "noradId": "67100",
                    "tle": [
                        "1 67100C 25298AB  25355.10534722 -.01029900  00000+0 -33691-2 0  3556",
                        "2 67100  69.9973 226.3040 0004196 264.7781 165.0403 15.91390550    19"
                    ]
                },
                {
                    "noradId": "67099",
                    "tle": [
                        "1 67099C 25298AA  25355.10187500 -.01038500  00000+0 -34046-2 0  3552",
                        "2 67099  69.9974 226.3161 0004069 267.3712 140.9549 15.91357714    11"
                    ]
                },
                {
                    "noradId": "67101",
                    "tle": [
                        "1 67101C 25298AC  25355.10951389 -.01010000  00000+0 -33221-2 0  3559",
                        "2 67101  69.9977 226.2957 0004289 271.1345 179.4922 15.91261591    18"
                    ]
                },
                {
                    "noradId": "67098",
                    "tle": [
                        "1 67098C 25298Z   25355.10534722 -.01020000  00000+0 -33622-2 0  3558",
                        "2 67098  69.9974 226.3093 0004134 267.6694 157.6665 15.91230779    14"
                    ]
                },
                {
                    "noradId": "67097",
                    "tle": [
                        "1 67097C 25298Y   25355.10465278 -.00997900  00000+0 -32986-2 0  3559",
                        "2 67097  69.9975 226.3135 0004231 268.2010 151.2651 15.91151949    14"
                    ]
                },
                {
                    "noradId": "67096",
                    "tle": [
                        "1 67096C 25298X   25355.10534722 -.00999590  00000+0 -33124-2 0  3551",
                        "2 67096  69.9975 226.3137 0004152 267.6850 154.0304 15.91104826    10"
                    ]
                },
                {
                    "noradId": "67095",
                    "tle": [
                        "1 67095C 25298W   25355.10534722 -.01002700  00000+0 -33312-2 0  3558",
                        "2 67095  69.9974 226.3153 0004079 267.0130 153.2270 15.91057214    10"
                    ]
                },
                {
                    "noradId": "67094",
                    "tle": [
                        "1 67094C 25298V   25355.10604167 -.00984620  00000+0 -32800-2 0  3558",
                        "2 67094  69.9976 226.3155 0004148 267.4426 155.0147 15.90985242    15"
                    ]
                },
                {
                    "noradId": "67093",
                    "tle": [
                        "1 67093C 25298U   25355.10256944 -.00985750  00000+0 -32917-2 0  3557",
                        "2 67093  69.9977 226.3277 0004004 266.1281 134.5352 15.90939998    13"
                    ]
                },
                {
                    "noradId": "67092",
                    "tle": [
                        "1 67092C 25298T   25355.11020833 -.00959520  00000+0 -32147-2 0  3554",
                        "2 67092  69.9979 226.3077 0004285 270.1590 172.5787 15.90845654    10"
                    ]
                },
                {
                    "noradId": "67091",
                    "tle": [
                        "1 67091C 25298S   25355.10881944 -.00957950  00000+0 -32172-2 0  3553",
                        "2 67091  69.9979 226.3136 0004270 268.4796 164.7741 15.90795733    12"
                    ]
                },
                {
                    "noradId": "67090",
                    "tle": [
                        "1 67090C 25298R   25355.10395833 -.00957770  00000+0 -32241-2 0  3556",
                        "2 67090  69.9978 226.3299 0004020 266.3002 137.2603 15.90751352    11"
                    ]
                },
                {
                    "noradId": "67089",
                    "tle": [
                        "1 67089C 25298Q   25355.11020833 -.00938150  00000+0 -31677-2 0  3553",
                        "2 67089  69.9981 226.3136 0004255 269.4192 168.4134 15.90668436    12"
                    ]
                },
                {
                    "noradId": "67088",
                    "tle": [
                        "1 67088C 25298P   25355.10951389 -.00928080  00000+0 -31422-2 0  3559",
                        "2 67088  69.9983 226.3181 0004240 269.0171 162.9517 15.90604310    15"
                    ]
                },
                {
                    "noradId": "67087",
                    "tle": [
                        "1 67087C 25298N   25355.10604167 -.00952440  00000+0 -32354-2 0  3559",
                        "2 67087  69.9982 226.3303 0004538 264.4034 145.8327 15.90561054    12"
                    ]
                },
                {
                    "noradId": "67086",
                    "tle": [
                        "1 67086C 25298M   25355.10465278 -.00949960  00000+0 -32348-2 0  3552",
                        "2 67086  69.9982 226.3362 0004496 263.8769 136.9593 15.90511122    14"
                    ]
                },
                {
                    "noradId": "67085",
                    "tle": [
                        "1 67085C 25298L   25355.10881944 -.00922850  00000+0 -31522-2 0  3555",
                        "2 67085  69.9984 226.3263 0004690 265.3605 157.4269 15.90419810    16"
                    ]
                },
                {
                    "noradId": "67084",
                    "tle": [
                        "1 67084C 25298K   25355.10465278 -.00931340  00000+0 -31890-2 0  3554",
                        "2 67084  69.9984 226.3404 0004439 264.9535 132.3305 15.90381944    19"
                    ]
                },
                {
                    "noradId": "67083",
                    "tle": [
                        "1 67083C 25298J   25355.10326389 -.00930200  00000+0 -31934-2 0  3555",
                        "2 67083  69.9983 226.3465 0004439 263.1746 124.4832 15.90328910    10"
                    ]
                },
                {
                    "noradId": "67082",
                    "tle": [
                        "1 67082C 25298H   25355.10465278 -.00917970  00000+0 -31607-2 0  3551",
                        "2 67082  69.9986 226.3448 0004449 263.9294 129.8861 15.90257281    13"
                    ]
                },
                {
                    "noradId": "67081",
                    "tle": [
                        "1 67081C 25298G   25355.10534722 -.00911500  00000+0 -31474-2 0  3556",
                        "2 67081  69.9986 226.3447 0004459 263.5365 132.5345 15.90193397    12"
                    ]
                },
                {
                    "noradId": "67080",
                    "tle": [
                        "1 67080C 25298F   25355.10604167 -.00909370  00000+0 -31490-2 0  3556",
                        "2 67080  69.9985 226.3447 0004520 264.3267 134.1202 15.90134069    10"
                    ]
                },
                {
                    "noradId": "67079",
                    "tle": [
                        "1 67079C 25298E   25355.10604167 -.00886100  00000+0 -30756-2 0  3553",
                        "2 67079  69.9987 226.3469 0004411 264.8333 131.8182 15.90063962    16"
                    ]
                },
                {
                    "noradId": "67077",
                    "tle": [
                        "1 67077C 25298C   25355.10673611 -.00874470  00000+0 -30524-2 0  3551",
                        "2 67077  69.9984 226.3488 0004353 264.9808 132.3166 15.89940304    15"
                    ]
                },
                {
                    "noradId": "67078",
                    "tle": [
                        "1 67078C 25298D   25355.10395833 -.00887220  00000+0 -30883-2 0  3554",
                        "2 67078  69.9986 226.3551 0004307 263.0785 119.7271 15.90009372    11"
                    ]
                },
                {
                    "noradId": "67075",
                    "tle": [
                        "1 67075C 25298A   25355.10812500 -.00863060  00000+0 -30296-2 0  3550",
                        "2 67075  69.9987 226.3490 0004411 264.0615 137.7295 15.89814727    12"
                    ]
                },
                {
                    "noradId": "67076",
                    "tle": [
                        "1 67076C 25298B   25355.10673611 -.00876310  00000+0 -30685-2 0  3553",
                        "2 67076  69.9987 226.3510 0004379 262.3022 133.0972 15.89878707    11"
                    ]
                }
            ]
        }
    ],
    "config": {}
}